{
  "norad_id": 62489,
  "name": "STARLINK-32328",
  "history": [
    {
      "epoch": "2026-03-28T16:27:25.211808",
      "apogee_km": 483.8365382471802,
      "perigee_km": 482.23788465591224,
      "latitude_deg": -0.2528464004367775,
      "longitude_deg": 134.72801311989315,
      "semi_major_axis_km": 6861.1742114515455,
      "eccentricity": 0.0001165,
      "inclination_deg": 42.9997,
      "raan_deg": 181.9569,
      "arg_perigee_deg": 286.1849,
      "mean_anomaly_deg": 73.8874,
      "mean_motion_rev_day": 15.27583969
    }
  ]
}